[{"OBJECT_NAME":"STARLINK-30364","OBJECT_ID":"2023-131K","EPOCH":"2026-03-09T22:00:01.999584","MEAN_MOTION":15.13370424,"ECCENTRICITY":0.00014253,"INCLINATION":42.9989,"RA_OF_ASC_NODE":170.2642,"ARG_OF_PERICENTER":274.0474,"MEAN_ANOMALY":17.4063,"EPHEMERIS_TYPE":0,"CLASSIFICATION_TYPE":"U","NORAD_CAT_ID":57741,"ELEMENT_SET_NO":999,"REV_AT_EPOCH":557,"BSTAR":0.070301336,"MEAN_MOTION_DOT":0.01392179,"MEAN_MOTION_DDOT":0},{"OBJECT_NAME":"OBJECT A","OBJECT_ID":"2025-226A","EPOCH":"2026-03-09T23:47:47.685696","MEAN_MOTION":15.14747363,"ECCENTRICITY":0.00155421,"INCLINATION":97.6484,"RA_OF_ASC_NODE":148.8014,"ARG_OF_PERICENTER":127.7306,"MEAN_ANOMALY":232.5337,"EPHEMERIS_TYPE":0,"CLASSIFICATION_TYPE":"U","NORAD_CAT_ID":65938,"ELEMENT_SET_NO":999,"REV_AT_EPOCH":2267,"BSTAR":0.00057458801,"MEAN_MOTION_DOT":0.00010623,"MEAN_MOTION_DDOT":0}]
